OBJECT_NAME,OBJECT_ID,EPOCH,MEAN_MOTION,ECCENTRICITY,INCLINATION,RA_OF_ASC_NODE,ARG_OF_PERICENTER,MEAN_ANOMALY,EPHEMERIS_TYPE,CLASSIFICATION_TYPE,NORAD_CAT_ID,ELEMENT_SET_NO,REV_AT_EPOCH,BSTAR,MEAN_MOTION_DOT,MEAN_MOTION_DDOT
TERRA,1999-068A,2012-07-16T11:11:45.688128,14.57115099,.0001502,98.2054,272.1392,109.0891,251.0472,0,U,25994,192,66902,.6091E-4,.229E-5,0
TERRA,1999-068A,2012-07-16T19:26:10.858560,14.57114937,.0001506,98.2056,272.4777,109.0599,251.0752,0,U,25994,193,66907,.48816E-4,.175E-5,0
TERRA,1999-068A,2012-07-17T03:40:36.038496,14.57115628,.0001488,98.2057,272.8161,110.6039,249.5346,0,U,25994,194,66912,.66967E-4,.257E-5,0
TERRA,1999-068A,2012-07-17T11:55:01.157952,14.57115894,.0001496,98.2056,273.1542,108.9200,251.2162,0,U,25994,195,66917,.68214E-4,.262E-5,0
TERRA,1999-068A,2012-07-17T20:09:26.286912,14.57116109,.0001509,98.2054,273.4923,107.4049,252.7287,0,U,25994,196,66922,.76573E-4,.3E-5,0
TERRA,1999-068A,2012-07-17T20:09:26.286912,14.57116109,.0001509,98.2054,273.4923,107.4049,252.7287,0,U,25994,197,66922,.76573E-4,.3E-5,0
TERRA,1999-068A,2012-07-18T04:23:51.464256,14.57116989,.0001497,98.2054,273.8308,109.0617,251.0772,0,U,25994,197,66927,.9934E-4,.402E-5,0
TERRA,1999-068A,2012-07-18T10:59:23.524224,14.57117326,.0001492,98.2053,274.1014,107.8040,252.3325,0,U,25994,198,66931,.10207E-3,.415E-5,0
TERRA,1999-068A,2012-07-18T19:13:48.644544,14.57117463,.0001463,98.2055,274.4399,106.8166,253.3186,0,U,25994,199,66936,.962E-4,.388E-5,0
TERRA,1999-068A,2012-07-19T05:07:06.807072,14.57117922,.0001437,98.2056,274.8458,107.9970,252.1400,0,U,25994,200,66942,.98604E-4,.399E-5,0
TERRA,1999-068A,2012-07-19T08:24:52.827552,14.57117931,.0001456,98.2057,274.9811,108.6262,251.5090,0,U,25994,201,66944,.95404E-4,.385E-5,0
TERRA,1999-068A,2012-07-19T19:57:04.039200,14.57117675,.0001395,98.2057,275.4546,105.7243,254.4102,0,U,25994,203,66951,.74959E-4,.293E-5,0
TERRA,1999-068A,2012-07-20T04:11:29.171616,14.57118084,.0001394,98.2061,275.7933,105.4025,254.7343,0,U,25994,204,66956,.77814E-4,.305E-5,0
TERRA,1999-068A,2012-07-20T12:25:54.272064,14.57118039,.0001414,98.2055,276.1313,106.3869,253.7483,0,U,25994,205,66961,.66559E-4,.255E-5,0
TERRA,1999-068A,2012-07-20T20:40:19.387200,14.57117833,.000141,98.2062,276.4700,105.7553,254.3786,0,U,25994,206,66966,.51635E-4,.187E-5,0
TERRA,1999-068A,2012-07-21T04:54:44.542944,14.57117969,.00014,98.2054,276.8081,106.4756,253.6610,0,U,25994,207,66971,.48098E-4,.171E-5,0
TERRA,1999-068A,2012-07-21T11:30:16.617600,14.57117976,.0001409,98.2053,277.0787,106.1042,254.0313,0,U,25994,208,66975,.41777E-4,.143E-5,0
TERRA,1999-068A,2012-07-21T19:44:41.747424,14.57117531,.0001393,98.2056,277.4174,105.8670,254.2671,0,U,25994,209,66980,.21255E-4,.51E-6,0
TERRA,1999-068A,2012-07-22T03:59:06.889344,14.57118164,.0001347,98.2052,277.7557,104.4202,255.7176,0,U,25994,210,66985,.39419E-4,.132E-5,0
TERRA,1999-068A,2012-07-22T12:13:31.955232,14.57118297,.0001358,98.2052,278.0940,103.9099,256.2255,0,U,25994,211,66990,.39436E-4,.132E-5,0
TERRA,1999-068A,2012-07-22T20:27:57.046176,14.57118274,.0001367,98.2053,278.4323,103.5065,256.6268,0,U,25994,212,66995,.38927E-4,.13E-5,0
TERRA,1999-068A,2012-07-23T04:42:22.186368,14.57118693,.0001382,98.2054,278.7707,104.2522,255.8849,0,U,25994,213,67000,.49568E-4,.178E-5,0
TERRA,1999-068A,2012-07-23T11:17:54.222144,14.57118880,.0001366,98.2051,279.0411,105.3324,254.8026,0,U,25994,214,67004,.51766E-4,.188E-5,0
TERRA,1999-068A,2012-07-23T19:32:19.320000,14.57118500,.0001379,98.2052,279.3797,105.5816,254.5516,0,U,25994,215,67009,.30515E-4,.92E-6,0
TERRA,1999-068A,2012-07-24T03:46:44.467104,14.57118776,.0001381,98.2048,279.7180,103.4377,256.6990,0,U,25994,216,67014,.34987E-4,.112E-5,0
TERRA,1999-068A,2012-07-24T12:01:09.545952,14.57118828,.0001387,98.2047,280.0562,102.4317,257.7036,0,U,25994,217,67019,.32524E-4,.101E-5,0
TERRA,1999-068A,2012-07-24T16:57:48.605184,14.57118824,.0001391,98.2046,280.2591,102.1077,258.0275,0,U,25994,218,67022,.29995E-4,.9E-6,0
TERRA,1999-068A,2012-07-24T20:15:34.648128,14.57118722,.0001404,98.2045,280.3943,101.2751,258.8590,0,U,25994,219,67024,.30518E-4,.92E-6,0
TERRA,1999-068A,2012-07-25T01:12:13.735008,14.57118959,.0001409,98.2044,280.5972,101.3285,258.8080,0,U,25994,219,67027,.37793E-4,.125E-5,0
TERRA,1999-068A,2012-07-25T09:26:38.819040,14.57119008,.0001445,98.2042,280.9356,100.8282,259.3084,0,U,25994,220,67032,.30674E-4,.93E-6,0
TERRA,1999-068A,2012-07-25T17:41:03.896160,14.57119124,.0001466,98.2044,281.2741,101.7059,258.4308,0,U,25994,221,67037,.28257E-4,.82E-6,0
TERRA,1999-068A,2012-07-25T20:58:49.926144,14.57118980,.0001434,98.2040,281.4092,102.1225,258.0128,0,U,25994,222,67039,.23048E-4,.59E-6,0
TERRA,1999-068A,2012-07-26T01:55:28.994016,14.57119363,.0001449,98.2040,281.6120,103.0810,257.0568,0,U,25994,222,67042,.35884E-4,.116E-5,0
TERRA,1999-068A,2012-07-26T10:09:54.018432,14.57119697,.0001445,98.2038,281.9503,103.0792,257.0566,0,U,25994,223,67047,.41155E-4,.14E-5,0
TERRA,1999-068A,2012-07-26T16:45:26.078400,14.57119719,.0001462,98.2036,282.2206,103.1951,256.9404,0,U,25994,224,67051,.37764E-4,.125E-5,0
TERRA,1999-068A,2012-07-26T21:42:05.137632,14.57119829,.0001492,98.2040,282.4237,101.1530,258.9824,0,U,25994,225,67054,.46619E-4,.165E-5,0
TERRA,1999-068A,2012-07-27T00:59:51.189216,14.57119993,.0001497,98.2039,282.5590,101.6252,258.5121,0,U,25994,225,67056,.50646E-4,.183E-5,0
TERRA,1999-068A,2012-07-27T09:14:16.216224,14.57120442,.0001452,98.2032,282.8976,101.6930,258.4433,0,U,25994,226,67061,.57381E-4,.213E-5,0
TERRA,1999-068A,2012-07-27T17:28:41.268288,14.57120325,.0001459,98.2034,283.2360,102.0131,258.1218,0,U,25994,227,67066,.448E-4,.157E-5,0
TERRA,1999-068A,2012-07-27T20:46:27.315552,14.57120348,.0001492,98.2037,283.3715,102.4355,257.7005,0,U,25994,228,67068,.48792E-4,.175E-5,0
TERRA,1999-068A,2012-07-28T01:43:06.364416,14.57120431,.0001497,98.2037,283.5745,101.9451,258.1915,0,U,25994,228,67071,.48749E-4,.174E-5,0
TERRA,1999-068A,2012-07-28T08:18:38.407968,14.57120622,.0001498,98.2036,283.8450,101.3493,258.7877,0,U,25994,229,67075,.46557E-4,.165E-5,0
TERRA,1999-068A,2012-07-28T16:33:03.470400,14.57120402,.000148,98.2038,284.1834,100.7257,259.4104,0,U,25994,230,67080,.29312E-4,.87E-6,0
TERRA,1999-068A,2012-07-28T21:29:42.516672,14.57120259,.00015,98.2038,284.3863,99.8223,260.3124,0,U,25994,231,67083,.29721E-4,.89E-6,0
TERRA,1999-068A,2012-07-29T00:47:28.579488,14.57120462,.0001489,98.2039,284.5216,99.8913,260.2466,0,U,25994,231,67085,.33693E-4,.107E-5,0
TERRA,1999-068A,2012-07-29T09:01:53.591808,14.57120780,.0001466,98.2036,284.8600,98.8887,261.2479,0,U,25994,232,67090,.35578E-4,.115E-5,0
TERRA,1999-068A,2012-07-29T17:16:18.638688,14.57120979,.0001484,98.2038,285.1982,98.7756,261.3610,0,U,25994,233,67095,.39017E-4,.131E-5,0
TERRA,1999-068A,2012-07-29T22:12:57.672000,14.57121130,.0001482,98.2038,285.4012,98.2610,261.8750,0,U,25994,234,67098,.48326E-4,.173E-5,0
TERRA,1999-068A,2012-07-30T01:30:43.702848,14.57121088,.0001502,98.2039,285.5365,98.9435,261.1933,0,U,25994,234,67100,.43951E-4,.153E-5,0
TERRA,1999-068A,2012-07-30T09:45:08.732448,14.57121393,.0001489,98.2039,285.8746,98.5170,261.6200,0,U,25994,235,67105,.46606E-4,.165E-5,0
TERRA,1999-068A,2012-07-30T16:20:40.761312,14.57121383,.0001467,98.2041,286.1455,97.2814,262.8547,0,U,25994,236,67109,.38363E-4,.128E-5,0
TERRA,1999-068A,2012-07-30T21:17:19.795488,14.57121280,.000147,98.2043,286.3486,95.6009,264.5337,0,U,25994,237,67112,.3955E-4,.133E-5,0
TERRA,1999-068A,2012-07-31T02:13:58.857312,14.57121600,.0001465,98.2042,286.5512,96.5811,263.5571,0,U,25994,237,67115,.48578E-4,.174E-5,0
TERRA,1999-068A,2012-07-31T08:49:30.833472,14.57122002,.0001451,98.2042,286.8219,95.2666,264.8700,0,U,25994,238,67119,.54896E-4,.202E-5,0
TERRA,1999-068A,2012-07-31T17:03:55.850112,14.57122233,.0001447,98.2043,287.1603,94.3435,265.7925,0,U,25994,239,67124,.56754E-4,.211E-5,0
TERRA,1999-068A,2012-07-31T20:21:41.868000,14.57122104,.0001469,98.2043,287.2956,94.4470,265.6882,0,U,25994,240,67126,.54032E-4,.198E-5,0
TERRA,1999-068A,2012-08-01T01:18:20.909952,14.57122414,.0001477,98.2043,287.4985,95.0092,265.1283,0,U,25994,240,67129,.64758E-4,.247E-5,0
TERRA,1999-068A,2012-08-01T09:32:45.888576,14.57122944,.000148,98.2043,287.8368,95.9837,264.1537,0,U,25994,241,67134,.72828E-4,.283E-5,0
TERRA,1999-068A,2012-08-01T17:47:10.882752,14.57123031,.0001472,98.2045,288.1753,95.2200,264.9161,0,U,25994,242,67139,.66536E-4,.255E-5,0
TERRA,1999-068A,2012-08-01T21:04:56.898048,14.57122817,.0001486,98.2045,288.3106,96.0234,264.1117,0,U,25994,243,67141,.58989E-4,.221E-5,0
TERRA,1999-068A,2012-08-02T02:01:35.935680,14.57123209,.0001479,98.2045,288.5133,96.1935,263.9447,0,U,25994,243,67144,.70477E-4,.272E-5,0
TERRA,1999-068A,2012-08-02T10:16:00.903936,14.57123441,.0001465,98.2043,288.8516,96.0119,264.1246,0,U,25994,244,67149,.67582E-4,.259E-5,0
TERRA,1999-068A,2012-08-02T16:51:32.904288,14.57123551,.0001468,98.2043,289.1221,95.2427,264.8936,0,U,25994,245,67153,.64385E-4,.245E-5,0
TERRA,1999-068A,2012-08-02T20:09:18.909216,14.57123598,.0001485,98.2043,289.2574,94.6410,265.4948,0,U,25994,246,67155,.68966E-4,.266E-5,0
TERRA,1999-068A,2012-08-03T06:02:36.908448,14.57124434,.0001459,98.2043,289.6634,96.3884,263.7510,0,U,25994,246,67161,.87747E-4,.35E-5,0
TERRA,1999-068A,2012-08-03T09:20:22.853760,14.57124566,.0001474,98.2043,289.7986,95.6897,264.4469,0,U,25994,247,67163,.88785E-4,.355E-5,0
TERRA,1999-068A,2012-08-03T22:31:26.831136,14.57124592,.0001468,98.2042,290.3400,96.6537,263.4822,0,U,25994,248,67171,.75629E-4,.296E-5,0
TERRA,1999-068A,2012-08-04T01:49:12.833472,14.57124808,.0001481,98.2044,290.4753,96.6529,263.4843,0,U,25994,249,67173,.81454E-4,.322E-5,0
TERRA,1999-068A,2012-08-04T10:03:37.776672,14.57125077,.0001475,98.2042,290.8136,96.9957,263.1406,0,U,25994,250,67178,.77724E-4,.305E-5,0
TERRA,1999-068A,2012-08-04T16:39:09.752832,14.57125043,.0001479,98.2045,291.0844,97.1329,263.0030,0,U,25994,251,67182,.67638E-4,.26E-5,0
